43257,IRIDIUM 150,2018,100.4,860.0,+,86.39,Active,1,LEO,USA,USA,Commercial/Government,Communications,Falcon,1 43257U 18030J   25118.23476184  .00000064  00000+0  15886-4 0  9996,2 43257  86.3924 103.9542 0002304  95.5332 264.6127 14.34216025370708,14.34216025,0.0002304,LEO
43258,IRIDIUM 143,2018,100.4,860.0,+,86.39,Active,1,LEO,USA,USA,Commercial/Government,Communications,Falcon,1 43258U 18030K   25118.21573359  .00000017  00000+0 -10530-5 0  9998,2 43258  86.3927 104.0385 0002489  99.0101 261.1376 14.34217449370648,14.34217449,0.0002489,LEO
43478,IRIDIUM 161,2018,99.77,860.0,+,86.45,Active,1,LEO,USA,USA,Commercial/Government,Communications,Falcon,1 43478U 18047C   25117.80794805  .00000847  00000+0  24576-3 0  9998,2 43478  86.4459 261.9970 0002118  89.5188 270.6255 14.43278352365223,14.43278352,0.0002118,LEO
43479,IRIDIUM 152,2018,100.4,860.0,+,86.39,Active,1,LEO,USA,USA,Commercial/Government,Communications,Falcon,1 43479U 18047D   25117.83958997  .00000624  00000+0  21565-3 0  9994,2 43479  86.3934 261.8442 0002066  92.2595 267.8837 14.34225767362952,14.34225767,0.0002066,LEO
43481,IRIDIUM 110,2018,100.4,860.0,+,86.39,Active,1,LEO,USA,USA,Commercial/Government,Communications,Falcon,1 43481U 18047F   25117.92206114  .00000436  00000+0  14851-3 0  9995,2 43481  86.3938 261.8886 0001928  82.2333 277.9082 14.34218865362951,14.34218865,0.0001928,LEO
43482,IRIDIUM 162,2018,99.77,860.0,+,86.45,Active,1,LEO,USA,USA,Commercial/Government,Communications,Falcon,1 43482U 18047G   25118.14829088  .00000462  00000+0  13137-3 0  9997,2 43482  86.4458 261.7505 0001848  92.3249 267.8164 14.43279912365262,14.43279912,0.0001848,LEO
